{
    "links": {
        "self": "http://www.neowsapp.com/rest/v1/neo/54049836?api_key=iIulBulltgU6a56xZRHN4H3l9WmuAYTsLGpBGhQ2"
    },
    "id": "54049836",
    "neo_reference_id": "54049836",
    "name": "(2020 OW5)",
    "designation": "2020 OW5",
    "nasa_jpl_url": "http://ssd.jpl.nasa.gov/sbdb.cgi?sstr=54049836",
    "absolute_magnitude_h": 26.171,
    "estimated_diameter": {
        "kilometers": {
            "estimated_diameter_min": 0.0155008308,
            "estimated_diameter_max": 0.0346609114
        },
        "meters": {
            "estimated_diameter_min": 15.5008308313,
            "estimated_diameter_max": 34.6609114464
        },
        "miles": {
            "estimated_diameter_min": 0.0096317668,
            "estimated_diameter_max": 0.0215372852
        },
        "feet": {
            "estimated_diameter_min": 50.8557458245,
            "estimated_diameter_max": 113.7169047099
        }
    },
    "is_potentially_hazardous_asteroid": false,
    "close_approach_data": [
        {
            "close_approach_date": "2020-07-25",
            "close_approach_date_full": "2020-Jul-25 04:03",
            "epoch_date_close_approach": 1595649780000,
            "relative_velocity": {
                "kilometers_per_second": "7.5456458672",
                "kilometers_per_hour": "27164.3251219555",
                "miles_per_hour": "16878.8552403617"
            },
            "miss_distance": {
                "astronomical": "0.0060889984",
                "lunar": "2.3686203776",
                "kilometers": "910901.191073408",
                "miles": "566007.7540047104"
            },
            "orbiting_body": "Moon"
        },
        {
            "close_approach_date": "2020-07-25",
            "close_approach_date_full": "2020-Jul-25 18:07",
            "epoch_date_close_approach": 1595700420000,
            "relative_velocity": {
                "kilometers_per_second": "7.4821932572",
                "kilometers_per_hour": "26935.8957259719",
                "miles_per_hour": "16736.918097063"
            },
            "miss_distance": {
                "astronomical": "0.0061818056",
                "lunar": "2.4047223784",
                "kilometers": "924784.950514072",
                "miles": "574634.7220833136"
            },
            "orbiting_body": "Earth"
        }
    ],
    "orbital_data": {
        "orbit_id": "5",
        "orbit_determination_date": "2020-08-14 07:24:31",
        "first_observation_date": "2020-07-29",
        "last_observation_date": "2020-08-13",
        "data_arc_in_days": 15,
        "observations_used": 39,
        "orbit_uncertainty": "8",
        "minimum_orbit_intersection": ".00615089",
        "jupiter_tisserand_invariant": "3.791",
        "epoch_osculation": "2459061.5",
        "eccentricity": ".4770753975276104",
        "semi_major_axis": "1.908192967034663",
        "inclination": ".8500755918865007",
        "ascending_node_longitude": "147.4222814982984",
        "orbital_period": "962.7906480259167",
        "perihelion_distance": ".9978410487272107",
        "perihelion_argument": "136.6118985660749",
        "aphelion_distance": "2.818544885342115",
        "perihelion_time": "2459040.291616615996",
        "mean_anomaly": "7.930091587300004",
        "mean_motion": ".3739130627599422",
        "equinox": "J2000",
        "orbit_class": {
            "orbit_class_type": "APO",
            "orbit_class_description": "Near-Earth asteroid orbits which cross the Earth’s orbit similar to that of 1862 Apollo",
            "orbit_class_range": "a (semi-major axis) > 1.0 AU; q (perihelion) < 1.017 AU"
        }
    },
    "is_sentry_object": false
}